{
    "links": {
        "self": "http://www.neowsapp.com/rest/v1/neo/3733302?api_key=iIulBulltgU6a56xZRHN4H3l9WmuAYTsLGpBGhQ2"
    },
    "id": "3733302",
    "neo_reference_id": "3733302",
    "name": "(2015 VB3)",
    "designation": "2015 VB3",
    "nasa_jpl_url": "http://ssd.jpl.nasa.gov/sbdb.cgi?sstr=3733302",
    "absolute_magnitude_h": 24.1,
    "estimated_diameter": {
        "kilometers": {
            "estimated_diameter_min": 0.040230458,
            "estimated_diameter_max": 0.0899580388
        },
        "meters": {
            "estimated_diameter_min": 40.2304579834,
            "estimated_diameter_max": 89.9580388169
        },
        "miles": {
            "estimated_diameter_min": 0.0249980399,
            "estimated_diameter_max": 0.0558973165
        },
        "feet": {
            "estimated_diameter_min": 131.9896957704,
            "estimated_diameter_max": 295.1379320721
        }
    },
    "is_potentially_hazardous_asteroid": false,
    "close_approach_data": [
        {
            "close_approach_date": "2015-11-08",
            "close_approach_date_full": "2015-Nov-08 22:44",
            "epoch_date_close_approach": 1447022640000,
            "relative_velocity": {
                "kilometers_per_second": "13.7493063481",
                "kilometers_per_hour": "49497.5028531575",
                "miles_per_hour": "30755.8233700633"
            },
            "miss_distance": {
                "astronomical": "0.0981456271",
                "lunar": "38.1786489419",
                "kilometers": "14682376.763974277",
                "miles": "9123205.8724559426"
            },
            "orbiting_body": "Earth"
        },
        {
            "close_approach_date": "2018-02-14",
            "close_approach_date_full": "2018-Feb-14 02:46",
            "epoch_date_close_approach": 1518576360000,
            "relative_velocity": {
                "kilometers_per_second": "5.4523224625",
                "kilometers_per_hour": "19628.3608650584",
                "miles_per_hour": "12196.3001164025"
            },
            "miss_distance": {
                "astronomical": "1.4610834907",
                "lunar": "568.3614778823",
                "kilometers": "218574978.100884809",
                "miles": "135816193.5113120042"
            },
            "orbiting_body": "Juptr"
        }
    ],
    "orbital_data": {
        "orbit_id": "10",
        "orbit_determination_date": "2017-04-06 08:30:54",
        "first_observation_date": "2015-11-06",
        "last_observation_date": "2015-11-20",
        "data_arc_in_days": 14,
        "observations_used": 51,
        "orbit_uncertainty": "8",
        "minimum_orbit_intersection": ".0753709",
        "jupiter_tisserand_invariant": "2.998",
        "epoch_osculation": "2457336.5",
        "eccentricity": ".6117320946605822",
        "semi_major_axis": "2.716279051874222",
        "inclination": "18.82549980741098",
        "ascending_node_longitude": "224.8961827922665",
        "orbital_period": "1635.159053798117",
        "perihelion_distance": "1.054643977788544",
        "perihelion_argument": "163.8586452287068",
        "aphelion_distance": "4.3779141259599",
        "perihelion_time": "2457323.511652589806",
        "mean_anomaly": "2.859541435317235",
        "mean_motion": ".2201620687380831",
        "equinox": "J2000",
        "orbit_class": {
            "orbit_class_type": "AMO",
            "orbit_class_description": "Near-Earth asteroid orbits similar to that of 1221 Amor",
            "orbit_class_range": "1.017 AU < q (perihelion) < 1.3 AU"
        }
    },
    "is_sentry_object": false
}